[Satellite]
VERSION=1.1
NAME=EUTELSAT 10B
NICKNAME=EUTELSAT 10B
TLE1=1 54260U 22157B   22341.90485541  .00001656  00000+0  12519-2 0  9999
TLE2=2 54260  22.5449 295.3993 8183379 183.0495 162.6558  1.25016188   188
STATUS=0
